{"type": "FeatureCollection", "features": [ {"type": "Feature", "properties": {"norad_id": 34468, "name": "COSMOS 2251 DEB", "group": "cosmos-2251-debris", "lat": -22.79261746382673, "lon": 91.31869107634412, "alt_km": 742.9523491804794, "timestamp": "2025-12-22T20:43:46.242563+00:00", "meta": {"OBJECT_NAME": "COSMOS 2251 DEB", "OBJECT_ID": "1993-036TM", "EPOCH": "2025-12-22T00:56:13.410240", "MEAN_MOTION": 14.47648693, "ECCENTRICITY": 0.00763002, "INCLINATION": 74.013, "RA_OF_ASC_NODE": 99.7823, "ARG_OF_PERICENTER": 242.8301, "MEAN_ANOMALY": 116.5066, "EPHEMERIS_TYPE": 0, "CLASSIFICATION_TYPE": "U", "NORAD_CAT_ID": 34468, "ELEMENT_SET_NO": 999, "REV_AT_EPOCH": 88596, "BSTAR": 0.00032520607, "MEAN_MOTION_DOT": 1.214e-05, "MEAN_MOTION_DDOT": 0}, "tle": {"line1": "1 34468U 93036TM  25356.03904410  .00001214  00000+0  32521-3 0  9991", "line2": "2 34468  74.0130  99.7823 0076300 242.8301 116.5066 14.47648693885969"}}, "geometry": {"type": "Point", "coordinates": [91.31869107634412, -22.79261746382673]}}, {"type": "Feature", "properties": {"norad_id": 34472, "name": "COSMOS 2251 DEB", "group": "cosmos-2251-debris", "lat": 58.46549648422851, "lon": 109.20421639563016, "alt_km": 1194.7224916848027, "timestamp": "2025-12-22T20:43:46.242573+00:00", "meta": {"OBJECT_NAME": "COSMOS 2251 DEB", "OBJECT_ID": "1993-036TR", "EPOCH": "2025-12-21T16:22:23.941920", "MEAN_MOTION": 13.70344234, "ECCENTRICITY": 0.03278312, "INCLINATION": 74.0843, "RA_OF_ASC_NODE": 83.4375, "ARG_OF_PERICENTER": 212.5022, "MEAN_ANOMALY": 145.5535, "EPHEMERIS_TYPE": 0, "CLASSIFICATION_TYPE": "U", "NORAD_CAT_ID": 34472, "ELEMENT_SET_NO": 999, "REV_AT_EPOCH": 83849, "BSTAR": 0.00054867639, "MEAN_MOTION_DOT": 6.85e-06, "MEAN_MOTION_DDOT": 0}, "tle": {"line1": "1 34472U 93036TR  25355.68222155  .00000685  00000+0  54868-3 0  9994", "line2": "2 34472  74.0843  83.4375 0327831 212.5022 145.5535 13.70344234838497"}}, "geometry": {"type": "Point", "coordinates": [109.20421639563016, 58.46549648422851]}}, {"type": "Feature", "properties": {"norad_id": 34474, "name": "COSMOS 2251 DEB", "group": "cosmos-2251-debris", "lat": 68.50133577521648, "lon": -5.052559883628605, "alt_km": 780.7743851140694, "timestamp": "2025-12-22T20:43:46.242583+00:00", "meta": {"OBJECT_NAME": "COSMOS 2251 DEB", "OBJECT_ID": "1993-036TT", "EPOCH": "2025-12-21T07:31:55.934112", "MEAN_MOTION": 14.06476369, "ECCENTRICITY": 0.01991372, "INCLINATION": 74.0784, "RA_OF_ASC_NODE": 311.2089, "ARG_OF_PERICENTER": 22.9422, "MEAN_ANOMALY": 126.0693, "EPHEMERIS_TYPE": 0, "CLASSIFICATION_TYPE": "U", "NORAD_CAT_ID": 34474, "ELEMENT_SET_NO": 999, "REV_AT_EPOCH": 85629, "BSTAR": 0.001939228, "MEAN_MOTION_DOT": 3.816e-05, "MEAN_MOTION_DDOT": 0}, "tle": {"line1": "1 34474U 93036TT  25355.31384183  .00003816  00000+0  19392-2 0  9997", "line2": "2 34474  74.0784 311.2089 0199137  22.9422 126.0693 14.06476369856292"}}, "geometry": {"type": "Point", "coordinates": [-5.052559883628605, 68.50133577521648]}}, {"type": "Feature", "properties": {"norad_id": 34476, "name": "COSMOS 2251 DEB", "group": "cosmos-2251-debris", "lat": -52.131057757026404, "lon": -92.91848842650808, "alt_km": 800.0879151241807, "timestamp": "2025-12-22T20:43:46.242594+00:00", "meta": {"OBJECT_NAME": "COSMOS 2251 DEB", "OBJECT_ID": "1993-036TV", "EPOCH": "2025-12-22T05:40:05.983968", "MEAN_MOTION": 13.82121657, "ECCENTRICITY": 0.03220378, "INCLINATION": 74.0075, "RA_OF_ASC_NODE": 66.4974, "ARG_OF_PERICENTER": 284.1027, "MEAN_ANOMALY": 72.4508, "EPHEMERIS_TYPE": 0, "CLASSIFICATION_TYPE": "U", "NORAD_CAT_ID": 34476, "ELEMENT_SET_NO": 999, "REV_AT_EPOCH": 83769, "BSTAR": 0.0038398251, "MEAN_MOTION_DOT": 6.122e-05, "MEAN_MOTION_DDOT": 0}, "tle": {"line1": "1 34476U 93036TV  25356.23618037  .00006122  00000+0  38398-2 0  9999", "line2": "2 34476  74.0075  66.4974 0322037 284.1027  72.4508 13.82121657837691"}}, "geometry": {"type": "Point", "coordinates": [-92.91848842650808, -52.131057757026404]}}, {"type": "Feature", "properties": {"norad_id": 34477, "name": "COSMOS 2251 DEB", "group": "cosmos-2251-debris", "lat": -21.64910661802388, "lon": 43.659924314652336, "alt_km": 719.0405195562062, "timestamp": "2025-12-22T20:43:46.242604+00:00", "meta": {"OBJECT_NAME": "COSMOS 2251 DEB", "OBJECT_ID": "1993-036TW", "EPOCH": "2025-12-22T08:13:30.792000", "MEAN_MOTION": 14.56926578, "ECCENTRICITY": 0.00767627, "INCLINATION": 73.9785, "RA_OF_ASC_NODE": 51.2013, "ARG_OF_PERICENTER": 236.5866, "MEAN_ANOMALY": 248.5286, "EPHEMERIS_TYPE": 0, "CLASSIFICATION_TYPE": "U", "NORAD_CAT_ID": 34477, "ELEMENT_SET_NO": 999, "REV_AT_EPOCH": 88765, "BSTAR": 0.00073489763, "MEAN_MOTION_DOT": 3.404e-05, "MEAN_MOTION_DDOT": 0}, "tle": {"line1": "1 34477U 93036TW  25356.34271750  .00003404  00000+0  73490-3 0  9992", "line2": "2 34477  73.9785  51.2013 0076762 236.5866 248.5286 14.56926578887654"}}, "geometry": {"type": "Point", "coordinates": [43.659924314652336, -21.64910661802388]}}, {"type": "Feature", "properties": {"norad_id": 34478, "name": "COSMOS 2251 DEB", "group": "cosmos-2251-debris", "lat": -64.37414836931099, "lon": -50.58093368056779, "alt_km": 545.1165690143962, "timestamp": "2025-12-22T20:43:46.242614+00:00", "meta": {"OBJECT_NAME": "COSMOS 2251 DEB", "OBJECT_ID": "1993-036TX", "EPOCH": "2025-12-21T04:12:46.485792", "MEAN_MOTION": 15.08639002, "ECCENTRICITY": 0.00340243, "INCLINATION": 74.0409, "RA_OF_ASC_NODE": 349.5203, "ARG_OF_PERICENTER": 208.4525, "MEAN_ANOMALY": 276.406, "EPHEMERIS_TYPE": 0, "CLASSIFICATION_TYPE": "U", "NORAD_CAT_ID": 34478, "ELEMENT_SET_NO": 999, "REV_AT_EPOCH": 89100, "BSTAR": 0.0018985498, "MEAN_MOTION_DOT": 0.00030215, "MEAN_MOTION_DDOT": 0}, "tle": {"line1": "1 34478U 93036TX  25355.17553803  .00030215  00000+0  18985-2 0  9992", "line2": "2 34478  74.0409 349.5203 0034024 208.4525 276.4060 15.08639002891004"}}, "geometry": {"type": "Point", "coordinates": [-50.58093368056779, -64.37414836931099]}}, {"type": "Feature", "properties": {"norad_id": 34481, "name": "COSMOS 2251 DEB", "group": "cosmos-2251-debris", "lat": 3.9821181794780416, "lon": 36.05482754223325, "alt_km": 831.4840620447148, "timestamp": "2025-12-22T20:43:46.242624+00:00", "meta": {"OBJECT_NAME": "COSMOS 2251 DEB", "OBJECT_ID": "1993-036UA", "EPOCH": "2025-12-22T04:13:14.565792", "MEAN_MOTION": 14.32582929, "ECCENTRICITY": 0.00703765, "INCLINATION": 73.979, "RA_OF_ASC_NODE": 36.1685, "ARG_OF_PERICENTER": 208.7649, "MEAN_ANOMALY": 209.0545, "EPHEMERIS_TYPE": 0, "CLASSIFICATION_TYPE": "U", "NORAD_CAT_ID": 34481, "ELEMENT_SET_NO": 999, "REV_AT_EPOCH": 87584, "BSTAR": 0.00054870101, "MEAN_MOTION_DOT": 1.505e-05, "MEAN_MOTION_DDOT": 0}, "tle": {"line1": "1 34481U 93036UA  25356.17586303  .00001505  00000+0  54870-3 0  9992", "line2": "2 34481  73.9790  36.1685 0070376 208.7649 209.0545 14.32582929875847"}}, "geometry": {"type": "Point", "coordinates": [36.05482754223325, 3.9821181794780416]}}, {"type": "Feature", "properties": {"norad_id": 34482, "name": "COSMOS 2251 DEB", "group": "cosmos-2251-debris", "lat": 65.4141174912586, "lon": -117.28132822752494, "alt_km": 687.0872128329947, "timestamp": "2025-12-22T20:43:46.242634+00:00", "meta": {"OBJECT_NAME": "COSMOS 2251 DEB", "OBJECT_ID": "1993-036UB", "EPOCH": "2025-12-22T01:30:43.351200", "MEAN_MOTION": 14.69348429, "ECCENTRICITY": 0.00444564, "INCLINATION": 74.0354, "RA_OF_ASC_NODE": 205.5376, "ARG_OF_PERICENTER": 263.8422, "MEAN_ANOMALY": 253.3149, "EPHEMERIS_TYPE": 0, "CLASSIFICATION_TYPE": "U", "NORAD_CAT_ID": 34482, "ELEMENT_SET_NO": 999, "REV_AT_EPOCH": 88324, "BSTAR": 0.0016777378, "MEAN_MOTION_DOT": 0.00010047, "MEAN_MOTION_DDOT": 0}, "tle": {"line1": "1 34482U 93036UB  25356.06300175  .00010047  00000+0  16777-2 0  9996", "line2": "2 34482  74.0354 205.5376 0044456 263.8422 253.3149 14.69348429883246"}}, "geometry": {"type": "Point", "coordinates": [-117.28132822752494, 65.4141174912586]}}, {"type": "Feature", "properties": {"norad_id": 34544, "name": "COSMOS 2251 DEB", "group": "cosmos-2251-debris", "lat": 71.51136398638005, "lon": -52.008528615703405, "alt_km": 1159.4210847751556, "timestamp": "2025-12-22T20:43:46.242644+00:00", "meta": {"OBJECT_NAME": "COSMOS 2251 DEB", "OBJECT_ID": "1993-036UE", "EPOCH": "2025-12-21T21:30:37.256256", "MEAN_MOTION": 13.54670498, "ECCENTRICITY": 0.03836913, "INCLINATION": 73.9139, "RA_OF_ASC_NODE": 189.2056, "ARG_OF_PERICENTER": 215.9783, "MEAN_ANOMALY": 210.8549, "EPHEMERIS_TYPE": 0, "CLASSIFICATION_TYPE": "U", "NORAD_CAT_ID": 34544, "ELEMENT_SET_NO": 999, "REV_AT_EPOCH": 83006, "BSTAR": 0.00039407504, "MEAN_MOTION_DOT": 4.09e-06, "MEAN_MOTION_DDOT": 0}, "tle": {"line1": "1 34544U 93036UE  25355.89626454  .00000409  00000+0  39408-3 0  9994", "line2": "2 34544  73.9139 189.2056 0383691 215.9783 210.8549 13.54670498830063"}}, "geometry": {"type": "Point", "coordinates": [-52.008528615703405, 71.51136398638005]}}, {"type": "Feature", "properties": {"norad_id": 34546, "name": "COSMOS 2251 DEB", "group": "cosmos-2251-debris", "lat": 58.39663468981257, "lon": 22.57091773557124, "alt_km": 750.1901726928463, "timestamp": "2025-12-22T20:43:46.242654+00:00", "meta": {"OBJECT_NAME": "COSMOS 2251 DEB", "OBJECT_ID": "1993-036UG", "EPOCH": "2025-12-22T10:28:49.872576", "MEAN_MOTION": 14.45448917, "ECCENTRICITY": 0.00220526, "INCLINATION": 74.0296, "RA_OF_ASC_NODE": 231.1051, "ARG_OF_PERICENTER": 303.8094, "MEAN_ANOMALY": 112.4927, "EPHEMERIS_TYPE": 0, "CLASSIFICATION_TYPE": "U", "NORAD_CAT_ID": 34546, "ELEMENT_SET_NO": 999, "REV_AT_EPOCH": 88166, "BSTAR": 0.00048545391, "MEAN_MOTION_DOT": 1.688e-05, "MEAN_MOTION_DDOT": 0}, "tle": {"line1": "1 34546U 93036UG  25356.43668834  .00001688  00000+0  48545-3 0  9997", "line2": "2 34546  74.0296 231.1051 0022052 303.8094 112.4927 14.45448917881665"}}, "geometry": {"type": "Point", "coordinates": [22.57091773557124, 58.39663468981257]}}]}